0 STAR ONE C2
1 32768U 08018B   13282.10413288 -.00000278  00000-0  10000-3 0   326
2 32768 000.0115 135.8217 0001418 075.5647 134.0243 01.00272269 20176
0 STAR ONE C2
1 32768U 08018B   13285.51129134 -.00000288  00000-0  10000-3 0   330
2 32768 000.0403 041.0062 0002225 166.5641 287.7704 01.00273917 20218
0 STAR ONE C2
1 32768U 08018B   13286.08818869 -.00000289  00000-0  10000-3 0   345
2 32768 000.0402 039.1340 0001994 168.9654 135.4872 01.00270752 20215
0 STAR ONE C2
1 32768U 08018B   13287.90049253 -.00000290  00000-0  10000-3 0   353
2 32768 000.0442 038.3988 0002002 171.8591 067.5331 01.00269981 20231
0 STAR ONE C2
1 32768U 08018B   13289.51666690  .00000000  00000-0  10000-3 0   372
2 32768 000.0393 103.8519 0002710 100.7028 296.5961 01.00263878 20261
0 STAR ONE C2
1 32768U 08018B   13290.35179020 -.00000287  00000-0  10000-3 0   369
2 32768 000.0480 037.4456 0002026 175.8327 229.3767 01.00269265 20269
0 STAR ONE C2
1 32768U 08018B   13295.39294575 -.00000278  00000-0  10000-3 0   372
2 32768 000.0418 056.2405 0002364 170.5829 235.6467 01.00273871 20318
